{
  "type": "FeatureCollection",
  "features": [
    {
      "type": "Feature",
      "properties": {
        "norad_id": 35646,
        "name": "COSMOS 2251 DEB",
        "group": "cosmos-2251-debris",
        "lat": -18.952449980566165,
        "lon": 52.49367965914808,
        "alt_km": 1449.1112589874447,
        "timestamp": "2025-12-11T08:58:27.521785+00:00",
        "meta_object_name": "COSMOS 2251 DEB",
        "meta_object_id": "1993-036ANM",
        "meta_epoch": "2025-12-10T23:13:32.512224",
        "meta_mean_motion": 13.40816666,
        "meta_eccentricity": 0.0457083,
        "meta_inclination": 73.8721,
        "meta_ra_of_asc_node": 58.8401,
        "meta_arg_of_pericenter": 169.3144,
        "meta_mean_anomaly": 10.2982,
        "meta_ephemeris_type": 0,
        "meta_classification_type": "U",
        "meta_norad_cat_id": 35646,
        "meta_element_set_no": 999,
        "meta_rev_at_epoch": 81834,
        "meta_bstar": 0.001382,
        "meta_mean_motion_dot": 1.389e-05,
        "meta_mean_motion_ddot": 0,
        "tle_line1": "1 35646U 93036ANM 25344.96773741  .00001389  00000+0  13820-2 0  9993",
        "tle_line2": "2 35646  73.8721  58.8401 0457083 169.3144  10.2982 13.40816666818342"
      },
      "geometry": {
        "type": "Point",
        "coordinates": [
          52.49367965914808,
          -18.952449980566165
        ]
      }
    },
    {
      "type": "Feature",
      "properties": {
        "norad_id": 35647,
        "name": "COSMOS 2251 DEB",
        "group": "cosmos-2251-debris",
        "lat": -17.230330752859743,
        "lon": -67.99026076778676,
        "alt_km": 732.1245627551161,
        "timestamp": "2025-12-11T08:58:27.521795+00:00",
        "meta_object_name": "COSMOS 2251 DEB",
        "meta_object_id": "1993-036ANN",
        "meta_epoch": "2025-12-10T14:45:43.130592",
        "meta_mean_motion": 14.43615239,
        "meta_eccentricity": 0.0045496,
        "meta_inclination": 74.0232,
        "meta_ra_of_asc_node": 298.5182,
        "meta_arg_of_pericenter": 38.1034,
        "meta_mean_anomaly": 322.3325,
        "meta_ephemeris_type": 0,
        "meta_classification_type": "U",
        "meta_norad_cat_id": 35647,
        "meta_element_set_no": 999,
        "meta_rev_at_epoch": 67633,
        "meta_bstar": 0.001375,
        "meta_mean_motion_dot": 4.698e-05,
        "meta_mean_motion_ddot": 0,
        "tle_line1": "1 35647U 93036ANN 25344.61508253  .00004698  00000+0  13750-2 0  9998",
        "tle_line2": "2 35647  74.0232 298.5182 0045496  38.1034 322.3325 14.43615239676330"
      },
      "geometry": {
        "type": "Point",
        "coordinates": [
          -67.99026076778676,
          -17.230330752859743
        ]
      }
    },
    {
      "type": "Feature",
      "properties": {
        "norad_id": 35650,
        "name": "COSMOS 2251 DEB",
        "group": "cosmos-2251-debris",
        "lat": -40.27335554891142,
        "lon": 7.553826180416842,
        "alt_km": 628.1363613557596,
        "timestamp": "2025-12-11T08:58:27.521806+00:00",
        "meta_object_name": "COSMOS 2251 DEB",
        "meta_object_id": "1993-036ANR",
        "meta_epoch": "2025-12-10T04:17:14.504640",
        "meta_mean_motion": 14.83512413,
        "meta_eccentricity": 0.00145256,
        "meta_inclination": 74.0455,
        "meta_ra_of_asc_node": 23.9462,
        "meta_arg_of_pericenter": 72.7174,
        "meta_mean_anomaly": 344.2504,
        "meta_ephemeris_type": 0,
        "meta_classification_type": "U",
        "meta_norad_cat_id": 35650,
        "meta_element_set_no": 999,
        "meta_rev_at_epoch": 87596,
        "meta_bstar": 0.0022559243,
        "meta_mean_motion_dot": 0.00018615,
        "meta_mean_motion_ddot": 0,
        "tle_line1": "1 35650U 93036ANR 25344.17864010  .00018615  00000+0  22559-2 0  9990",
        "tle_line2": "2 35650  74.0455  23.9462 0014525  72.7174 344.2504 14.83512413875966"
      },
      "geometry": {
        "type": "Point",
        "coordinates": [
          7.553826180416842,
          -40.27335554891142
        ]
      }
    },
    {
      "type": "Feature",
      "properties": {
        "norad_id": 35660,
        "name": "COSMOS 2251 DEB",
        "group": "cosmos-2251-debris",
        "lat": 56.832123331868324,
        "lon": 161.7632905475018,
        "alt_km": 729.6098299113728,
        "timestamp": "2025-12-11T08:58:27.521816+00:00",
        "meta_object_name": "COSMOS 2251 DEB",
        "meta_object_id": "1993-036APB",
        "meta_epoch": "2025-12-10T03:25:35.080032",
        "meta_mean_motion": 14.49912866,
        "meta_eccentricity": 0.00186346,
        "meta_inclination": 74.0397,
        "meta_ra_of_asc_node": 138.1054,
        "meta_arg_of_pericenter": 287.2761,
        "meta_mean_anomaly": 189.4863,
        "meta_ephemeris_type": 0,
        "meta_classification_type": "U",
        "meta_norad_cat_id": 35660,
        "meta_element_set_no": 999,
        "meta_rev_at_epoch": 65833,
        "meta_bstar": 0.00068790313,
        "meta_mean_motion_dot": 2.638e-05,
        "meta_mean_motion_ddot": 0,
        "tle_line1": "1 35660U 93036APB 25344.14276713  .00002638  00000+0  68790-3 0  9991",
        "tle_line2": "2 35660  74.0397 138.1054 0018634 287.2761 189.4863 14.49912866658333"
      },
      "geometry": {
        "type": "Point",
        "coordinates": [
          161.7632905475018,
          56.832123331868324
        ]
      }
    },
    {
      "type": "Feature",
      "properties": {
        "norad_id": 35661,
        "name": "COSMOS 2251 DEB",
        "group": "cosmos-2251-debris",
        "lat": -54.93353594286088,
        "lon": -73.44054310233584,
        "alt_km": 576.5654241819966,
        "timestamp": "2025-12-11T08:58:27.521827+00:00",
        "meta_object_name": "COSMOS 2251 DEB",
        "meta_object_id": "1993-036APC",
        "meta_epoch": "2025-12-09T17:08:36.134304",
        "meta_mean_motion": 14.86479367,
        "meta_eccentricity": 0.00883269,
        "meta_inclination": 74.0134,
        "meta_ra_of_asc_node": 85.7599,
        "meta_arg_of_pericenter": 190.7537,
        "meta_mean_anomaly": 169.1759,
        "meta_ephemeris_type": 0,
        "meta_classification_type": "U",
        "meta_norad_cat_id": 35661,
        "meta_element_set_no": 999,
        "meta_rev_at_epoch": 87823,
        "meta_bstar": 0.0014984263,
        "meta_mean_motion_dot": 0.00014219,
        "meta_mean_motion_ddot": 0,
        "tle_line1": "1 35661U 93036APC 25343.71430711  .00014219  00000+0  14984-2 0  9997",
        "tle_line2": "2 35661  74.0134  85.7599 0088326 190.7537 169.1759 14.86479367878235"
      },
      "geometry": {
        "type": "Point",
        "coordinates": [
          -73.44054310233584,
          -54.93353594286088
        ]
      }
    },
    {
      "type": "Feature",
      "properties": {
        "norad_id": 35663,
        "name": "COSMOS 2251 DEB",
        "group": "cosmos-2251-debris",
        "lat": -41.9298441317299,
        "lon": -37.776467945108124,
        "alt_km": 677.0274397748108,
        "timestamp": "2025-12-11T08:58:27.521837+00:00",
        "meta_object_name": "COSMOS 2251 DEB",
        "meta_object_id": "1993-036APE",
        "meta_epoch": "2025-11-30T11:26:45.384288",
        "meta_mean_motion": 14.65332391,
        "meta_eccentricity": 0.00074535,
        "meta_inclination": 74.0171,
        "meta_ra_of_asc_node": 148.2949,
        "meta_arg_of_pericenter": 219.2944,
        "meta_mean_anomaly": 140.7685,
        "meta_ephemeris_type": 0,
        "meta_classification_type": "U",
        "meta_norad_cat_id": 35663,
        "meta_element_set_no": 999,
        "meta_rev_at_epoch": 73202,
        "meta_bstar": 0.0015821861,
        "meta_mean_motion_dot": 8.525e-05,
        "meta_mean_motion_ddot": 0,
        "tle_line1": "1 35663U 93036APE 25334.47691417  .00008525  00000+0  15822-2 0  9999",
        "tle_line2": "2 35663  74.0171 148.2949 0007453 219.2944 140.7685 14.65332391732024"
      },
      "geometry": {
        "type": "Point",
        "coordinates": [
          -37.776467945108124,
          -41.9298441317299
        ]
      }
    },
    {
      "type": "Feature",
      "properties": {
        "norad_id": 35667,
        "name": "COSMOS 2251 DEB",
        "group": "cosmos-2251-debris",
        "lat": -54.59510509259368,
        "lon": 118.9927616039892,
        "alt_km": 701.9641760760296,
        "timestamp": "2025-12-11T08:58:27.521848+00:00",
        "meta_object_name": "COSMOS 2251 DEB",
        "meta_object_id": "1993-036APJ",
        "meta_epoch": "2025-12-11T04:18:22.944672",
        "meta_mean_motion": 14.59989469,
        "meta_eccentricity": 0.001983,
        "meta_inclination": 74.0549,
        "meta_ra_of_asc_node": 143.0806,
        "meta_arg_of_pericenter": 203.8334,
        "meta_mean_anomaly": 156.1916,
        "meta_ephemeris_type": 0,
        "meta_classification_type": "U",
        "meta_norad_cat_id": 35667,
        "meta_element_set_no": 999,
        "meta_rev_at_epoch": 70780,
        "meta_bstar": 0.0016781,
        "meta_mean_motion_dot": 8.053e-05,
        "meta_mean_motion_ddot": 0,
        "tle_line1": "1 35667U 93036APJ 25345.17943223  .00008053  00000+0  16781-2 0  9998",
        "tle_line2": "2 35667  74.0549 143.0806 0019830 203.8334 156.1916 14.59989469707809"
      },
      "geometry": {
        "type": "Point",
        "coordinates": [
          118.9927616039892,
          -54.59510509259368
        ]
      }
    }
  ]
}